FREGAT R/B              
1 44553U 19065B   26088.90500191  .00001281  00000+0  00000+0 0  9991
2 44553  63.3397 161.3968 6690924 261.3079  23.5188  2.01539187 47905
COSMOS 1897 DEB         
1 44572U 87096G   26094.46390277 -.00000045  00000+0  00000+0 0  9999
2 44572  10.9719 326.8045 0021076 299.2584 333.1601  1.00483585 70248
ARIANE 44LP DEB         
1 44573U 92060J   26094.22716001 -.00000358  00000+0 -26677-2 0  9997
2 44573   7.1704 356.8770 7181584 343.2836 225.3239  2.23471557 97887
LUCH DEB                
1 44582U 94082G   26090.63492759 -.00000354  00000+0  00000+0 0  9999
2 44582  14.6028 354.6332 0018416  89.1411  94.7635  1.00692312 45463
SL-12 DEB               
1 44588U 99027E   26094.58466098 -.00000079  00000+0  00000+0 0  9998
2 44588   7.2102 123.6189 3215330 158.6815 209.5101  1.46007490 65970
EUTELSAT 5 WEST B       
1 44624U 19067A   26094.17524647 -.00000043  00000+0  00000+0 0  9996
2 44624   0.0659  10.2087 0003440  12.9125 227.4504  1.00272696 23698
BREEZE-M R/B            
1 44626U 19067C   26093.16958755 -.00000223  00000+0  00000+0 0  9997
2 44626  23.1550  61.0386 6502811  11.5820 357.6880  0.93850733 20393
TJS-4                   
1 44637U 19070A   26094.14003204 -.00000171  00000+0  00000+0 0  9994
2 44637   0.0308  71.4465 0002392 338.3296 276.6087  1.00274296 23792
ATLAS 5 CENTAUR DEB     
1 44661U 18079X   26093.66275484 -.00000097  00000+0  00000+0 0  9993
2 44661  12.9305  67.1630 4630842 248.2452  57.3438  1.72653146 47310
ATLAS 5 CENTAUR DEB     
1 44665U 18079AB  26094.28125745 -.00000085  00000+0  00000+0 0  9997
2 44665  12.6017  78.6366 4655757 225.8343  85.0551  1.68623455 42129
ATLAS 5 CENTAUR DEB     
1 44673U 18079AK  26093.60785312 -.00000119  00000+0  00000+0 0  9991
2 44673  13.2931  49.5719 4706684 283.5000  29.8909  1.77547319 48545
ATLAS 5 CENTAUR DEB     
1 44679U 18079AR  26094.53198779 -.00000124  00000+0  00000+0 0  9991
2 44679  13.3554  45.1794 4692146 292.2117  25.4165  1.79403227 45354
ATLAS 5 CENTAUR DEB     
1 44680U 18079AS  26093.07166043 -.00000111  00000+0  00000+0 0  9996
2 44680  13.2535  54.8419 4691786 271.7675  37.1998  1.75589201 44148
ATLAS 5 CENTAUR DEB     
1 44685U 18079AX  26094.38251741 -.00000085  00000+0  00000+0 0  9996
2 44685  12.5120  79.8333 4563629 225.0552  87.4631  1.69261949 42258
ATLAS 5 CENTAUR DEB     
1 44686U 18079AY  26094.12180164 -.00000087  00000+0  00000+0 0  9991
2 44686  12.5442  78.6819 4656870 228.2141  81.5009  1.69097858 42320
ATLAS 5 CENTAUR DEB     
1 44693U 18079BF  26094.53350324 -.00000121  00000+0  00000+0 0  9990
2 44693  13.4224  46.8593 4682157 287.0523  28.1540  1.78463468 45566
ATLAS 5 CENTAUR DEB     
1 44694U 18079BG  26093.87883410 -.00000121  00000+0  00000+0 0  9994
2 44694  13.5458  45.3720 4741465 287.2821  27.5677  1.77433824 45245
