[{"OBJECT_NAME":"FREGAT R/B","OBJECT_ID":"2019-065B","EPOCH":"2026-03-29T21:43:12.165024","MEAN_MOTION":2.01539187,"ECCENTRICITY":0.66909248,"INCLINATION":63.3397,"RA_OF_ASC_NODE":161.3968,"ARG_OF_PERICENTER":261.3079,"MEAN_ANOMALY":23.5188,"EPHEMERIS_TYPE":0,"CLASSIFICATION_TYPE":"U","NORAD_CAT_ID":44553,"ELEMENT_SET_NO":999,"REV_AT_EPOCH":4790,"BSTAR":0,"MEAN_MOTION_DOT":1.281e-5,"MEAN_MOTION_DDOT":0},{"OBJECT_NAME":"COSMOS 1897 DEB","OBJECT_ID":"1987-096G","EPOCH":"2026-04-04T11:08:01.199328","MEAN_MOTION":1.00483585,"ECCENTRICITY":0.00210764,"INCLINATION":10.9719,"RA_OF_ASC_NODE":326.8045,"ARG_OF_PERICENTER":299.2584,"MEAN_ANOMALY":333.1601,"EPHEMERIS_TYPE":0,"CLASSIFICATION_TYPE":"U","NORAD_CAT_ID":44572,"ELEMENT_SET_NO":999,"REV_AT_EPOCH":7024,"BSTAR":0,"MEAN_MOTION_DOT":-4.5e-7,"MEAN_MOTION_DDOT":0},{"OBJECT_NAME":"ARIANE 44LP DEB","OBJECT_ID":"1992-060J","EPOCH":"2026-04-04T05:27:06.624864","MEAN_MOTION":2.23471557,"ECCENTRICITY":0.71815844,"INCLINATION":7.1704,"RA_OF_ASC_NODE":356.877,"ARG_OF_PERICENTER":343.2836,"MEAN_ANOMALY":225.3239,"EPHEMERIS_TYPE":0,"CLASSIFICATION_TYPE":"U","NORAD_CAT_ID":44573,"ELEMENT_SET_NO":999,"REV_AT_EPOCH":9788,"BSTAR":-0.0026676586,"MEAN_MOTION_DOT":-3.58e-6,"MEAN_MOTION_DDOT":0},{"OBJECT_NAME":"LUCH DEB","OBJECT_ID":"1994-082G","EPOCH":"2026-03-31T15:14:17.743776","MEAN_MOTION":1.00692312,"ECCENTRICITY":0.00184168,"INCLINATION":14.6028,"RA_OF_ASC_NODE":354.6332,"ARG_OF_PERICENTER":89.1411,"MEAN_ANOMALY":94.7635,"EPHEMERIS_TYPE":0,"CLASSIFICATION_TYPE":"U","NORAD_CAT_ID":44582,"ELEMENT_SET_NO":999,"REV_AT_EPOCH":4546,"BSTAR":0,"MEAN_MOTION_DOT":-3.54e-6,"MEAN_MOTION_DDOT":0},{"OBJECT_NAME":"SL-12 DEB","OBJECT_ID":"1999-027E","EPOCH":"2026-04-04T14:01:54.708672","MEAN_MOTION":1.4600749,"ECCENTRICITY":0.321533,"INCLINATION":7.2102,"RA_OF_ASC_NODE":123.6189,"ARG_OF_PERICENTER":158.6815,"MEAN_ANOMALY":209.5101,"EPHEMERIS_TYPE":0,"CLASSIFICATION_TYPE":"U","NORAD_CAT_ID":44588,"ELEMENT_SET_NO":999,"REV_AT_EPOCH":6597,"BSTAR":0,"MEAN_MOTION_DOT":-7.9e-7,"MEAN_MOTION_DDOT":0},{"OBJECT_NAME":"EUTELSAT 5 WEST B","OBJECT_ID":"2019-067A","EPOCH":"2026-04-04T04:12:21.295008","MEAN_MOTION":1.00272696,"ECCENTRICITY":0.000344,"INCLINATION":0.0659,"RA_OF_ASC_NODE":10.2087,"ARG_OF_PERICENTER":12.9125,"MEAN_ANOMALY":227.4504,"EPHEMERIS_TYPE":0,"CLASSIFICATION_TYPE":"U","NORAD_CAT_ID":44624,"ELEMENT_SET_NO":999,"REV_AT_EPOCH":2369,"BSTAR":0,"MEAN_MOTION_DOT":-4.3e-7,"MEAN_MOTION_DDOT":0},{"OBJECT_NAME":"BREEZE-M R/B","OBJECT_ID":"2019-067C","EPOCH":"2026-04-03T04:04:12.364320","MEAN_MOTION":0.93850733,"ECCENTRICITY":0.65028113,"INCLINATION":23.155,"RA_OF_ASC_NODE":61.0386,"ARG_OF_PERICENTER":11.582,"MEAN_ANOMALY":357.688,"EPHEMERIS_TYPE":0,"CLASSIFICATION_TYPE":"U","NORAD_CAT_ID":44626,"ELEMENT_SET_NO":999,"REV_AT_EPOCH":2039,"BSTAR":0,"MEAN_MOTION_DOT":-2.23e-6,"MEAN_MOTION_DDOT":0},{"OBJECT_NAME":"TJS-4","OBJECT_ID":"2019-070A","EPOCH":"2026-04-04T03:21:38.768256","MEAN_MOTION":1.00274296,"ECCENTRICITY":0.00023928,"INCLINATION":0.0308,"RA_OF_ASC_NODE":71.4465,"ARG_OF_PERICENTER":338.3296,"MEAN_ANOMALY":276.6087,"EPHEMERIS_TYPE":0,"CLASSIFICATION_TYPE":"U","NORAD_CAT_ID":44637,"ELEMENT_SET_NO":999,"REV_AT_EPOCH":2379,"BSTAR":0,"MEAN_MOTION_DOT":-1.71e-6,"MEAN_MOTION_DDOT":0},{"OBJECT_NAME":"ATLAS 5 CENTAUR DEB","OBJECT_ID":"2018-079X","EPOCH":"2026-04-03T15:54:22.018176","MEAN_MOTION":1.72653146,"ECCENTRICITY":0.4630842,"INCLINATION":12.9305,"RA_OF_ASC_NODE":67.163,"ARG_OF_PERICENTER":248.2452,"MEAN_ANOMALY":57.3438,"EPHEMERIS_TYPE":0,"CLASSIFICATION_TYPE":"U","NORAD_CAT_ID":44661,"ELEMENT_SET_NO":999,"REV_AT_EPOCH":4731,"BSTAR":0,"MEAN_MOTION_DOT":-9.7e-7,"MEAN_MOTION_DDOT":0},{"OBJECT_NAME":"ATLAS 5 CENTAUR DEB","OBJECT_ID":"2018-079AB","EPOCH":"2026-04-04T06:45:00.643680","MEAN_MOTION":1.68623455,"ECCENTRICITY":0.46557578,"INCLINATION":12.6017,"RA_OF_ASC_NODE":78.6366,"ARG_OF_PERICENTER":225.8343,"MEAN_ANOMALY":85.0551,"EPHEMERIS_TYPE":0,"CLASSIFICATION_TYPE":"U","NORAD_CAT_ID":44665,"ELEMENT_SET_NO":999,"REV_AT_EPOCH":4212,"BSTAR":0,"MEAN_MOTION_DOT":-8.5e-7,"MEAN_MOTION_DDOT":0},{"OBJECT_NAME":"ATLAS 5 CENTAUR DEB","OBJECT_ID":"2018-079AK","EPOCH":"2026-04-03T14:35:18.509568","MEAN_MOTION":1.77547319,"ECCENTRICITY":0.47066842,"INCLINATION":13.2931,"RA_OF_ASC_NODE":49.5719,"ARG_OF_PERICENTER":283.5,"MEAN_ANOMALY":29.8909,"EPHEMERIS_TYPE":0,"CLASSIFICATION_TYPE":"U","NORAD_CAT_ID":44673,"ELEMENT_SET_NO":999,"REV_AT_EPOCH":4854,"BSTAR":0,"MEAN_MOTION_DOT":-1.19e-6,"MEAN_MOTION_DDOT":0},{"OBJECT_NAME":"ATLAS 5 CENTAUR DEB","OBJECT_ID":"2018-079AR","EPOCH":"2026-04-04T12:46:03.745056","MEAN_MOTION":1.79403227,"ECCENTRICITY":0.4692146,"INCLINATION":13.3554,"RA_OF_ASC_NODE":45.1794,"ARG_OF_PERICENTER":292.2117,"MEAN_ANOMALY":25.4165,"EPHEMERIS_TYPE":0,"CLASSIFICATION_TYPE":"U","NORAD_CAT_ID":44679,"ELEMENT_SET_NO":999,"REV_AT_EPOCH":4535,"BSTAR":0,"MEAN_MOTION_DOT":-1.24e-6,"MEAN_MOTION_DDOT":0},{"OBJECT_NAME":"ATLAS 5 CENTAUR DEB","OBJECT_ID":"2018-079AS","EPOCH":"2026-04-03T01:43:11.461152","MEAN_MOTION":1.75589201,"ECCENTRICITY":0.4691786,"INCLINATION":13.2535,"RA_OF_ASC_NODE":54.8419,"ARG_OF_PERICENTER":271.7675,"MEAN_ANOMALY":37.1998,"EPHEMERIS_TYPE":0,"CLASSIFICATION_TYPE":"U","NORAD_CAT_ID":44680,"ELEMENT_SET_NO":999,"REV_AT_EPOCH":4414,"BSTAR":0,"MEAN_MOTION_DOT":-1.11e-6,"MEAN_MOTION_DDOT":0},{"OBJECT_NAME":"ATLAS 5 CENTAUR DEB","OBJECT_ID":"2018-079AX","EPOCH":"2026-04-04T09:10:49.504224","MEAN_MOTION":1.69261949,"ECCENTRICITY":0.4563629,"INCLINATION":12.512,"RA_OF_ASC_NODE":79.8333,"ARG_OF_PERICENTER":225.0552,"MEAN_ANOMALY":87.4631,"EPHEMERIS_TYPE":0,"CLASSIFICATION_TYPE":"U","NORAD_CAT_ID":44685,"ELEMENT_SET_NO":999,"REV_AT_EPOCH":4225,"BSTAR":0,"MEAN_MOTION_DOT":-8.5e-7,"MEAN_MOTION_DDOT":0},{"OBJECT_NAME":"ATLAS 5 CENTAUR DEB","OBJECT_ID":"2018-079AY","EPOCH":"2026-04-04T02:55:23.661696","MEAN_MOTION":1.69097858,"ECCENTRICITY":0.46568703,"INCLINATION":12.5442,"RA_OF_ASC_NODE":78.6819,"ARG_OF_PERICENTER":228.2141,"MEAN_ANOMALY":81.5009,"EPHEMERIS_TYPE":0,"CLASSIFICATION_TYPE":"U","NORAD_CAT_ID":44686,"ELEMENT_SET_NO":999,"REV_AT_EPOCH":4232,"BSTAR":0,"MEAN_MOTION_DOT":-8.7e-7,"MEAN_MOTION_DDOT":0},{"OBJECT_NAME":"ATLAS 5 CENTAUR DEB","OBJECT_ID":"2018-079BF","EPOCH":"2026-04-04T12:48:14.679936","MEAN_MOTION":1.78463468,"ECCENTRICITY":0.4682157,"INCLINATION":13.4224,"RA_OF_ASC_NODE":46.8593,"ARG_OF_PERICENTER":287.0523,"MEAN_ANOMALY":28.154,"EPHEMERIS_TYPE":0,"CLASSIFICATION_TYPE":"U","NORAD_CAT_ID":44693,"ELEMENT_SET_NO":999,"REV_AT_EPOCH":4556,"BSTAR":0,"MEAN_MOTION_DOT":-1.21e-6,"MEAN_MOTION_DDOT":0},{"OBJECT_NAME":"ATLAS 5 CENTAUR DEB","OBJECT_ID":"2018-079BG","EPOCH":"2026-04-03T21:05:31.266240","MEAN_MOTION":1.77433824,"ECCENTRICITY":0.47414654,"INCLINATION":13.5458,"RA_OF_ASC_NODE":45.372,"ARG_OF_PERICENTER":287.2821,"MEAN_ANOMALY":27.5677,"EPHEMERIS_TYPE":0,"CLASSIFICATION_TYPE":"U","NORAD_CAT_ID":44694,"ELEMENT_SET_NO":999,"REV_AT_EPOCH":4524,"BSTAR":0,"MEAN_MOTION_DOT":-1.21e-6,"MEAN_MOTION_DDOT":0}]
